CCSDS_OMM_VERS = 2.0
CREATION_DATE  = 
ORIGINATOR     = 

OBJECT_NAME    = SL-14 R/B
OBJECT_ID      = 1986-046B
CENTER_NAME    = EARTH
REF_FRAME      = TEME
TIME_SYSTEM    = UTC
MEAN_ELEMENT_THEORY = SGP/SGP4

EPOCH          = 2026-02-17T04:43:02.689824
MEAN_MOTION    = 14.85570033
ECCENTRICITY   = .0021648
INCLINATION    = 82.4799
RA_OF_ASC_NODE = 99.5498
ARG_OF_PERICENTER = 297.4503
MEAN_ANOMALY   = 62.4512

EPHEMERIS_TYPE = 0
CLASSIFICATION_TYPE = U
NORAD_CAT_ID   = 16792
ELEMENT_SET_NO = 999
REV_AT_EPOCH   = 12336
BSTAR          = .51723E-4
MEAN_MOTION_DOT = .473E-5
MEAN_MOTION_DDOT = 0

CCSDS_OMM_VERS = 2.0
CREATION_DATE  = 
ORIGINATOR     = 

OBJECT_NAME    = SL-14 R/B
OBJECT_ID      = 1986-055B
CENTER_NAME    = EARTH
REF_FRAME      = TEME
TIME_SYSTEM    = UTC
MEAN_ELEMENT_THEORY = SGP/SGP4

EPOCH          = 2026-02-17T07:50:56.458176
MEAN_MOTION    = 14.85621730
ECCENTRICITY   = .0019896
INCLINATION    = 82.5232
RA_OF_ASC_NODE = 145.8085
ARG_OF_PERICENTER = 43.2685
MEAN_ANOMALY   = 15.2827

EPHEMERIS_TYPE = 0
CLASSIFICATION_TYPE = U
NORAD_CAT_ID   = 16882
ELEMENT_SET_NO = 999
REV_AT_EPOCH   = 11634
BSTAR          = .57821E-4
MEAN_MOTION_DOT = .527E-5
MEAN_MOTION_DDOT = 0

CCSDS_OMM_VERS = 2.0
CREATION_DATE  = 
ORIGINATOR     = 

OBJECT_NAME    = AJISAI (EGS)
OBJECT_ID      = 1986-061A
CENTER_NAME    = EARTH
REF_FRAME      = TEME
TIME_SYSTEM    = UTC
MEAN_ELEMENT_THEORY = SGP/SGP4

EPOCH          = 2026-02-17T11:33:12.173760
MEAN_MOTION    = 12.44515289
ECCENTRICITY   = .0011232
INCLINATION    = 50.0083
RA_OF_ASC_NODE = 155.4884
ARG_OF_PERICENTER = 234.9293
MEAN_ANOMALY   = 208.9611

EPHEMERIS_TYPE = 0
CLASSIFICATION_TYPE = U
NORAD_CAT_ID   = 16908
ELEMENT_SET_NO = 999
REV_AT_EPOCH   = 46548
BSTAR          = -.72744E-4
MEAN_MOTION_DOT = -.108E-5
MEAN_MOTION_DDOT = 0

CCSDS_OMM_VERS = 2.0
CREATION_DATE  = 
ORIGINATOR     = 

OBJECT_NAME    = COSMOS 1812
OBJECT_ID      = 1987-003A
CENTER_NAME    = EARTH
REF_FRAME      = TEME
TIME_SYSTEM    = UTC
MEAN_ELEMENT_THEORY = SGP/SGP4

EPOCH          = 2026-02-17T12:09:33.141312
MEAN_MOTION    = 16.01253427
ECCENTRICITY   = .0002946
INCLINATION    = 82.4748
RA_OF_ASC_NODE = 218.6361
ARG_OF_PERICENTER = 300.9377
MEAN_ANOMALY   = 59.1612

EPHEMERIS_TYPE = 0
CLASSIFICATION_TYPE = U
NORAD_CAT_ID   = 17295
ELEMENT_SET_NO = 999
REV_AT_EPOCH   = 14123
BSTAR          = .76704E-3
MEAN_MOTION_DOT = .41749E-2
MEAN_MOTION_DDOT = .7416E-4

CCSDS_OMM_VERS = 2.0
CREATION_DATE  = 
ORIGINATOR     = 

OBJECT_NAME    = SL-14 R/B
OBJECT_ID      = 1987-024B
CENTER_NAME    = EARTH
REF_FRAME      = TEME
TIME_SYSTEM    = UTC
MEAN_ELEMENT_THEORY = SGP/SGP4

EPOCH          = 2026-02-17T05:41:54.903264
MEAN_MOTION    = 14.86112365
ECCENTRICITY   = .0017403
INCLINATION    = 82.5275
RA_OF_ASC_NODE = 111.9882
ARG_OF_PERICENTER = 332.9717
MEAN_ANOMALY   = 27.0592

EPHEMERIS_TYPE = 0
CLASSIFICATION_TYPE = U
NORAD_CAT_ID   = 17567
ELEMENT_SET_NO = 999
REV_AT_EPOCH   = 8509
BSTAR          = .52531E-4
MEAN_MOTION_DOT = .485E-5
MEAN_MOTION_DDOT = 0

CCSDS_OMM_VERS = 2.0
CREATION_DATE  = 
ORIGINATOR     = 

OBJECT_NAME    = COSMOS 1833
OBJECT_ID      = 1987-027A
CENTER_NAME    = EARTH
REF_FRAME      = TEME
TIME_SYSTEM    = UTC
MEAN_ELEMENT_THEORY = SGP/SGP4

EPOCH          = 2026-02-17T07:57:05.252256
MEAN_MOTION    = 14.13057385
ECCENTRICITY   = .0024862
INCLINATION    = 70.9227
RA_OF_ASC_NODE = 8.8029
ARG_OF_PERICENTER = 242.2527
MEAN_ANOMALY   = 117.6073

EPHEMERIS_TYPE = 0
CLASSIFICATION_TYPE = U
NORAD_CAT_ID   = 17589
ELEMENT_SET_NO = 999
REV_AT_EPOCH   = 744
BSTAR          = .15188E-5
MEAN_MOTION_DOT = -.45E-6
MEAN_MOTION_DDOT = 0

CCSDS_OMM_VERS = 2.0
CREATION_DATE  = 
ORIGINATOR     = 

OBJECT_NAME    = SL-16 R/B
OBJECT_ID      = 1987-027B
CENTER_NAME    = EARTH
REF_FRAME      = TEME
TIME_SYSTEM    = UTC
MEAN_ELEMENT_THEORY = SGP/SGP4

EPOCH          = 2026-02-17T03:39:10.254528
MEAN_MOTION    = 14.17163565
ECCENTRICITY   = .00045753
INCLINATION    = 71.0042
RA_OF_ASC_NODE = 319.7724
ARG_OF_PERICENTER = 179.2491
MEAN_ANOMALY   = 180.8640

EPHEMERIS_TYPE = 0
CLASSIFICATION_TYPE = U
NORAD_CAT_ID   = 17590
ELEMENT_SET_NO = 999
REV_AT_EPOCH   = 1243
BSTAR          = .11992963E-3
MEAN_MOTION_DOT = .194E-5
MEAN_MOTION_DDOT = 0

CCSDS_OMM_VERS = 2.0
CREATION_DATE  = 
ORIGINATOR     = 

OBJECT_NAME    = SL-14 R/B
OBJECT_ID      = 1987-038B
CENTER_NAME    = EARTH
REF_FRAME      = TEME
TIME_SYSTEM    = UTC
MEAN_ELEMENT_THEORY = SGP/SGP4

EPOCH          = 2026-02-17T05:19:29.757216
MEAN_MOTION    = 14.85349720
ECCENTRICITY   = .0017953
INCLINATION    = 82.5037
RA_OF_ASC_NODE = 316.0860
ARG_OF_PERICENTER = 229.5465
MEAN_ANOMALY   = 130.4187

EPHEMERIS_TYPE = 0
CLASSIFICATION_TYPE = U
NORAD_CAT_ID   = 17912
ELEMENT_SET_NO = 999
REV_AT_EPOCH   = 7619
BSTAR          = .57944E-4
MEAN_MOTION_DOT = .523E-5
MEAN_MOTION_DDOT = 0

CCSDS_OMM_VERS = 2.0
CREATION_DATE  = 
ORIGINATOR     = 

OBJECT_NAME    = COSMOS 1844
OBJECT_ID      = 1987-041A
CENTER_NAME    = EARTH
REF_FRAME      = TEME
TIME_SYSTEM    = UTC
MEAN_ELEMENT_THEORY = SGP/SGP4

EPOCH          = 2026-02-17T11:00:38.871936
MEAN_MOTION    = 14.14548899
ECCENTRICITY   = .0029046
INCLINATION    = 70.8980
RA_OF_ASC_NODE = 76.8493
ARG_OF_PERICENTER = 50.1701
MEAN_ANOMALY   = 310.1970

EPHEMERIS_TYPE = 0
CLASSIFICATION_TYPE = U
NORAD_CAT_ID   = 17973
ELEMENT_SET_NO = 999
REV_AT_EPOCH   = 72
BSTAR          = .21004E-3
MEAN_MOTION_DOT = .357E-5
MEAN_MOTION_DDOT = 0

CCSDS_OMM_VERS = 2.0
CREATION_DATE  = 
ORIGINATOR     = 

OBJECT_NAME    = SL-14 R/B
OBJECT_ID      = 1987-055B
CENTER_NAME    = EARTH
REF_FRAME      = TEME
TIME_SYSTEM    = UTC
MEAN_ELEMENT_THEORY = SGP/SGP4

EPOCH          = 2026-02-17T08:05:26.419776
MEAN_MOTION    = 14.85603165
ECCENTRICITY   = .0022326
INCLINATION    = 82.5010
RA_OF_ASC_NODE = 8.2086
ARG_OF_PERICENTER = 81.3555
MEAN_ANOMALY   = 279.0190

EPHEMERIS_TYPE = 0
CLASSIFICATION_TYPE = U
NORAD_CAT_ID   = 18153
ELEMENT_SET_NO = 999
REV_AT_EPOCH   = 6691
BSTAR          = .64092E-4
MEAN_MOTION_DOT = .581E-5
MEAN_MOTION_DDOT = 0

CCSDS_OMM_VERS = 2.0
CREATION_DATE  = 
ORIGINATOR     = 

OBJECT_NAME    = COSMOS 1867
OBJECT_ID      = 1987-060A
CENTER_NAME    = EARTH
REF_FRAME      = TEME
TIME_SYSTEM    = UTC
MEAN_ELEMENT_THEORY = SGP/SGP4

EPOCH          = 2026-02-17T06:01:48.541728
MEAN_MOTION    = 14.31499693
ECCENTRICITY   = .0014172
INCLINATION    = 65.0122
RA_OF_ASC_NODE = 3.9400
ARG_OF_PERICENTER = 277.4997
MEAN_ANOMALY   = 82.4477

EPHEMERIS_TYPE = 0
CLASSIFICATION_TYPE = U
NORAD_CAT_ID   = 18187
ELEMENT_SET_NO = 999
REV_AT_EPOCH   = 1701
BSTAR          = .23505E-4
MEAN_MOTION_DOT = -.38E-6
MEAN_MOTION_DDOT = 0

CCSDS_OMM_VERS = 2.0
CREATION_DATE  = 
ORIGINATOR     = 

OBJECT_NAME    = SL-14 R/B
OBJECT_ID      = 1988-001B
CENTER_NAME    = EARTH
REF_FRAME      = TEME
TIME_SYSTEM    = UTC
MEAN_ELEMENT_THEORY = SGP/SGP4

EPOCH          = 2026-02-17T11:10:37.071840
MEAN_MOTION    = 14.85502073
ECCENTRICITY   = .0016868
INCLINATION    = 82.5117
RA_OF_ASC_NODE = 214.3804
ARG_OF_PERICENTER = 308.3857
MEAN_ANOMALY   = 51.5843

EPHEMERIS_TYPE = 0
CLASSIFICATION_TYPE = U
NORAD_CAT_ID   = 18749
ELEMENT_SET_NO = 999
REV_AT_EPOCH   = 3902
BSTAR          = .60595E-4
MEAN_MOTION_DOT = .548E-5
MEAN_MOTION_DDOT = 0

